GLOBALSTAR M023         
1 25621U 99004A   24298.51429414 -.00000055  00000+0  26932-3 0  9998
2 25621  52.0124  51.0599 0009506 329.1293 111.6154 12.62480304186059
GLOBALSTAR M040         
1 25622U 99004B   24298.55641365 -.00000064  00000+0  22413-3 0  9994
2 25622  51.9932  54.7333 0000677 175.2460 268.2958 12.61987589185806
GLOBALSTAR M036         
1 25623U 99004C   24298.50263503 -.00000055  00000+0  40079-3 0  9992
2 25623  51.9936 141.5256 0010319 325.2424  45.8090 11.86578959150981
GLOBALSTAR M038         
1 25624U 99004D   24298.43674641 -.00000053  00000+0  34276-3 0  9994
2 25624  52.0000  30.4959 0001231 276.0059 175.8248 12.32511311173268
GLOBALSTAR M022         
1 25649U 99012A   24298.53043509 -.00000052  00000+0  42091-3 0  9997
2 25649  52.0038 211.5200 0003171  62.1131 108.9770 12.02489784148104
GLOBALSTAR M041         
1 25650U 99012B   24298.42024191 -.00000066  00000+0  25567-3 0  9997
2 25650  52.0009  86.0789 0002155 198.6826 161.3932 11.96659608150302
GLOBALSTAR M046         
1 25651U 99012C   24297.96225259  .00000032  00000+0  13351-2 0  9993
2 25651  52.0039 171.8228 0002756 120.5802 253.0560 12.09400353155084
GLOBALSTAR M037         
1 25652U 99012D   24297.84778301 -.00000066  00000+0  21291-3 0  9993
2 25652  51.9993 183.7966 0002668  38.7033  38.3535 12.62422002181428
